{"fetched_at":"2026-07-21T07:06:26.959Z","source":"https://celestrak.org/NORAD/elements/gp.php?GROUP=kuiper&FORMAT=JSON","constellation":"kuiper","records":[{"OBJECT_NAME":"KUIPER-00114","OBJECT_ID":"2025-171V","EPOCH":"2026-07-20T13:22:26.474304","CLASSIFICATION_TYPE":"U","MEAN_MOTION":14.79945796,"ECCENTRICITY":0.00003878,"INCLINATION":51.9012,"RA_OF_ASC_NODE":308.0555,"ARG_OF_PERICENTER":123.5257,"MEAN_ANOMALY":236.5743,"EPHEMERIS_TYPE":0,"NORAD_CAT_ID":65151,"ELEMENT_SET_NO":999,"REV_AT_EPOCH":5231,"BSTAR":0.00025433789,"MEAN_MOTION_DOT":0.00001719,"MEAN_MOTION_DDOT":0},{"OBJECT_NAME":"KUIPER-00115","OBJECT_ID":"2025-171W","EPOCH":"2026-07-20T13:34:06.494016","CLASSIFICATION_TYPE":"U","MEAN_MOTION":14.79939512,"ECCENTRICITY":0.0000331,"INCLINATION":51.9022,"RA_OF_ASC_NODE":300.5219,"ARG_OF_PERICENTER":122.4322,"MEAN_ANOMALY":237.6673,"EPHEMERIS_TYPE":0,"NORAD_CAT_ID":65152,"ELEMENT_SET_NO":999,"REV_AT_EPOCH":5242,"BSTAR":0.00024234,"MEAN_MOTION_DOT":0.00001627,"MEAN_MOTION_DDOT":0},{"OBJECT_NAME":"KUIPER-00116","OBJECT_ID":"2025-171X","EPOCH":"2026-07-20T15:52:13.069632","CLASSIFICATION_TYPE":"U","MEAN_MOTION":14.79925831,"ECCENTRICITY":0.00006021,"INCLINATION":51.9013,"RA_OF_ASC_NODE":305.1318,"ARG_OF_PERICENTER":99.1304,"MEAN_ANOMALY":260.9726,"EPHEMERIS_TYPE":0,"NORAD_CAT_ID":65153,"ELEMENT_SET_NO":999,"REV_AT_EPOCH":5236,"BSTAR":0.00024264839,"MEAN_MOTION_DOT":0.00001629,"MEAN_MOTION_DDOT":0},{"OBJECT_NAME":"KUIPER-00118","OBJECT_ID":"2025-171Y","EPOCH":"2026-07-20T14:11:02.503680","CLASSIFICATION_TYPE":"U","MEAN_MOTION":14.79945543,"ECCENTRICITY":0.0000363,"INCLINATION":51.9008,"RA_OF_ASC_NODE":307.8926,"ARG_OF_PERICENTER":103.6369,"MEAN_ANOMALY":256.4634,"EPHEMERIS_TYPE":0,"NORAD_CAT_ID":65154,"ELEMENT_SET_NO":999,"REV_AT_EPOCH":5232,"BSTAR":0.00025003,"MEAN_MOTION_DOT":0.00001686,"MEAN_MOTION_DDOT":0},{"OBJECT_NAME":"KUIPER-00119","OBJECT_ID":"2025-171Z","EPOCH":"2026-07-20T22:36:42.541920","CLASSIFICATION_TYPE":"U","MEAN_MOTION":14.79942349,"ECCENTRICITY":0.00002933,"INCLINATION":51.9024,"RA_OF_ASC_NODE":293.9362,"ARG_OF_PERICENTER":233.3892,"MEAN_ANOMALY":126.7044,"EPHEMERIS_TYPE":0,"NORAD_CAT_ID":65155,"ELEMENT_SET_NO":999,"REV_AT_EPOCH":5254,"BSTAR":-0.00030056071,"MEAN_MOTION_DOT":-0.00002512,"MEAN_MOTION_DDOT":0},{"OBJECT_NAME":"KUIPER-00120","OBJECT_ID":"2025-217A","EPOCH":"2026-07-20T23:26:00.421728","CLASSIFICATION_TYPE":"U","MEAN_MOTION":14.79943828,"ECCENTRICITY":0.00005432,"INCLINATION":51.8987,"RA_OF_ASC_NODE":183.6601,"ARG_OF_PERICENTER":61.5763,"MEAN_ANOMALY":298.5254,"EPHEMERIS_TYPE":0,"NORAD_CAT_ID":65762,"ELEMENT_SET_NO":999,"REV_AT_EPOCH":4447,"BSTAR":0.00023361762,"MEAN_MOTION_DOT":0.00001561,"MEAN_MOTION_DDOT":0},{"OBJECT_NAME":"KUIPER-00132","OBJECT_ID":"2025-217B","EPOCH":"2026-07-20T21:19:06.468384","CLASSIFICATION_TYPE":"U","MEAN_MOTION":15.4343216,"ECCENTRICITY":0.00072235,"INCLINATION":51.8549,"RA_OF_ASC_NODE":74.9038,"ARG_OF_PERICENTER":85.2532,"MEAN_ANOMALY":274.9282,"EPHEMERIS_TYPE":0,"NORAD_CAT_ID":65763,"ELEMENT_SET_NO":999,"REV_AT_EPOCH":4597,"BSTAR":0.00028533145,"MEAN_MOTION_DOT":0.00012581,"MEAN_MOTION_DDOT":0},{"OBJECT_NAME":"KUIPER-00133","OBJECT_ID":"2025-217C","EPOCH":"2026-07-20T08:02:13.479072","CLASSIFICATION_TYPE":"U","MEAN_MOTION":14.79941933,"ECCENTRICITY":0.00005481,"INCLINATION":51.9032,"RA_OF_ASC_NODE":186.6094,"ARG_OF_PERICENTER":60.268,"MEAN_ANOMALY":299.8336,"EPHEMERIS_TYPE":0,"NORAD_CAT_ID":65764,"ELEMENT_SET_NO":999,"REV_AT_EPOCH":4438,"BSTAR":0.000209694,"MEAN_MOTION_DOT":0.00001378,"MEAN_MOTION_DDOT":0},{"OBJECT_NAME":"KUIPER-00139","OBJECT_ID":"2025-217D","EPOCH":"2026-07-20T05:38:13.058304","CLASSIFICATION_TYPE":"U","MEAN_MOTION":14.79931189,"ECCENTRICITY":0.00007417,"INCLINATION":51.8985,"RA_OF_ASC_NODE":154.5075,"ARG_OF_PERICENTER":74.4383,"MEAN_ANOMALY":285.6661,"EPHEMERIS_TYPE":0,"NORAD_CAT_ID":65765,"ELEMENT_SET_NO":999,"REV_AT_EPOCH":4482,"BSTAR":0.00023397017,"MEAN_MOTION_DOT":0.00001563,"MEAN_MOTION_DDOT":0},{"OBJECT_NAME":"KUIPER-00142","OBJECT_ID":"2025-217E","EPOCH":"2026-07-20T22:15:56.793024","CLASSIFICATION_TYPE":"U","MEAN_MOTION":14.79930342,"ECCENTRICITY":0.00006495,"INCLINATION":51.8991,"RA_OF_ASC_NODE":166.404,"ARG_OF_PERICENTER":74.9309,"MEAN_ANOMALY":285.1725,"EPHEMERIS_TYPE":0,"NORAD_CAT_ID":65766,"ELEMENT_SET_NO":999,"REV_AT_EPOCH":4471,"BSTAR":0.0002605492,"MEAN_MOTION_DOT":0.00001766,"MEAN_MOTION_DDOT":0},{"OBJECT_NAME":"KUIPER-00145","OBJECT_ID":"2025-217F","EPOCH":"2026-07-20T22:12:08.553600","CLASSIFICATION_TYPE":"U","MEAN_MOTION":14.79963245,"ECCENTRICITY":0.00010949,"INCLINATION":51.8995,"RA_OF_ASC_NODE":168.9408,"ARG_OF_PERICENTER":64.8346,"MEAN_ANOMALY":295.273,"EPHEMERIS_TYPE":0,"NORAD_CAT_ID":65767,"ELEMENT_SET_NO":999,"REV_AT_EPOCH":4467,"BSTAR":0.00068108923,"MEAN_MOTION_DOT":0.00004978,"MEAN_MOTION_DDOT":0},{"OBJECT_NAME":"KUIPER-00147","OBJECT_ID":"2025-217G","EPOCH":"2026-07-20T08:21:36.664128","CLASSIFICATION_TYPE":"U","MEAN_MOTION":14.79928697,"ECCENTRICITY":0.00005912,"INCLINATION":51.8981,"RA_OF_ASC_NODE":173.9685,"ARG_OF_PERICENTER":83.021,"MEAN_ANOMALY":277.082,"EPHEMERIS_TYPE":0,"NORAD_CAT_ID":65768,"ELEMENT_SET_NO":999,"REV_AT_EPOCH":4455,"BSTAR":0.00021641053,"MEAN_MOTION_DOT":0.00001429,"MEAN_MOTION_DDOT":0},{"OBJECT_NAME":"KUIPER-00148","OBJECT_ID":"2025-217H","EPOCH":"2026-07-20T13:40:27.602688","CLASSIFICATION_TYPE":"U","MEAN_MOTION":14.79925707,"ECCENTRICITY":0.0000713,"INCLINATION":51.9049,"RA_OF_ASC_NODE":155.5048,"ARG_OF_PERICENTER":64.4645,"MEAN_ANOMALY":295.6391,"EPHEMERIS_TYPE":0,"NORAD_CAT_ID":65769,"ELEMENT_SET_NO":999,"REV_AT_EPOCH":4483,"BSTAR":-0.00021747,"MEAN_MOTION_DOT":-0.00001878,"MEAN_MOTION_DDOT":0},{"OBJECT_NAME":"KUIPER-00150","OBJECT_ID":"2025-217J","EPOCH":"2026-07-20T08:06:01.772064","CLASSIFICATION_TYPE":"U","MEAN_MOTION":14.79946923,"ECCENTRICITY":0.00006068,"INCLINATION":51.902,"RA_OF_ASC_NODE":184.052,"ARG_OF_PERICENTER":31.3208,"MEAN_ANOMALY":328.779,"EPHEMERIS_TYPE":0,"NORAD_CAT_ID":65770,"ELEMENT_SET_NO":999,"REV_AT_EPOCH":4441,"BSTAR":0.00024349792,"MEAN_MOTION_DOT":0.00001636,"MEAN_MOTION_DDOT":0},{"OBJECT_NAME":"KUIPER-00151","OBJECT_ID":"2025-217K","EPOCH":"2026-07-20T22:52:55.339392","CLASSIFICATION_TYPE":"U","MEAN_MOTION":14.799288,"ECCENTRICITY":0.0000377,"INCLINATION":51.9014,"RA_OF_ASC_NODE":173.8263,"ARG_OF_PERICENTER":67.4064,"MEAN_ANOMALY":292.6938,"EPHEMERIS_TYPE":0,"NORAD_CAT_ID":65771,"ELEMENT_SET_NO":999,"REV_AT_EPOCH":4461,"BSTAR":0.00027201475,"MEAN_MOTION_DOT":0.00001853,"MEAN_MOTION_DDOT":0},{"OBJECT_NAME":"KUIPER-00152","OBJECT_ID":"2025-217L","EPOCH":"2026-07-20T04:34:04.958688","CLASSIFICATION_TYPE":"U","MEAN_MOTION":14.7994176,"ECCENTRICITY":0.00007031,"INCLINATION":51.9004,"RA_OF_ASC_NODE":164.684,"ARG_OF_PERICENTER":67.7636,"MEAN_ANOMALY":292.3401,"EPHEMERIS_TYPE":0,"NORAD_CAT_ID":65772,"ELEMENT_SET_NO":999,"REV_AT_EPOCH":4467,"BSTAR":0.00022951093,"MEAN_MOTION_DOT":0.00001529,"MEAN_MOTION_DDOT":0}]}
