KUIPER-00114            
1 65151U 25171V   26201.55725086  .00001719  00000+0  25434-3 0  9991
2 65151  51.9012 308.0555 0000387 123.5257 236.5743 14.79945796 52319
KUIPER-00115            
1 65152U 25171W   26201.56535294  .00001627  00000+0  24234-3 0  9998
2 65152  51.9022 300.5219 0000331 122.4322 237.6673 14.79939512 52420
KUIPER-00116            
1 65153U 25171X   26201.66126238  .00001629  00000+0  24265-3 0  9990
2 65153  51.9013 305.1318 0000602  99.1304 260.9726 14.79925831 52363
KUIPER-00118            
1 65154U 25171Y   26201.59100120  .00001686  00000+0  25003-3 0  9999
2 65154  51.9008 307.8926 0000363 103.6369 256.4634 14.79945543 52324
KUIPER-00119            
1 65155U 25171Z   26201.94215905 -.00002512  00000+0 -30056-3 0  9992
2 65155  51.9024 293.9362 0000293 233.3892 126.7044 14.79942349 52545
KUIPER-00120            
1 65762U 25217A   26201.97639377  .00001561  00000+0  23362-3 0  9996
2 65762  51.8987 183.6601 0000543  61.5763 298.5254 14.79943828 44470
KUIPER-00132            
1 65763U 25217B   26201.88826931  .00012581  00000+0  28533-3 0  9990
2 65763  51.8549  74.9038 0007223  85.2532 274.9282 15.43432160 45979
KUIPER-00133            
1 65764U 25217C   26201.33487823  .00001378  00000+0  20969-3 0  9991
2 65764  51.9032 186.6094 0000548  60.2680 299.8336 14.79941933 44382
KUIPER-00139            
1 65765U 25217D   26201.23487336  .00001563  00000+0  23397-3 0  9994
2 65765  51.8985 154.5075 0000741  74.4383 285.6661 14.79931189 44829
KUIPER-00142            
1 65766U 25217E   26201.92774066  .00001766  00000+0  26055-3 0  9999
2 65766  51.8991 166.4040 0000649  74.9309 285.1725 14.79930342 44715
KUIPER-00145            
1 65767U 25217F   26201.92509900  .00004978  00000+0  68109-3 0  9997
2 65767  51.8995 168.9408 0001094  64.8346 295.2730 14.79963245 44670
KUIPER-00147            
1 65768U 25217G   26201.34834102  .00001429  00000+0  21641-3 0  9997
2 65768  51.8981 173.9685 0000591  83.0210 277.0820 14.79928697 44550
KUIPER-00148            
1 65769U 25217H   26201.56976392 -.00001878  00000+0 -21747-3 0  9997
2 65769  51.9049 155.5048 0000713  64.4645 295.6391 14.79925707 44836
KUIPER-00150            
1 65770U 25217J   26201.33752051  .00001636  00000+0  24350-3 0  9991
2 65770  51.9020 184.0520 0000606  31.3208 328.7790 14.79946923 44416
KUIPER-00151            
1 65771U 25217K   26201.95341828  .00001853  00000+0  27201-3 0  9995
2 65771  51.9014 173.8263 0000377  67.4064 292.6938 14.79928800 44614
KUIPER-00152            
1 65772U 25217L   26201.19033517  .00001529  00000+0  22951-3 0  9992
2 65772  51.9004 164.6840 0000703  67.7636 292.3401 14.79941760 44672
